NORAD_CAT_ID,OBJECT_NAME,OBJECT_TYPE,EPOCH,MEAN_MOTION,ECCENTRICITY,INCLINATION,RA_OF_ASC_NODE,ARG_OF_PERICENTER,MEAN_ANOMALY,BSTAR,MEAN_MOTION_DOT,MEAN_MOTION_DDOT,TLE_LINE0,TLE_LINE1,TLE_LINE2,SEMIMAJOR_AXIS,PERIOD,APOGEE,PERIGEE,DECAYED
53933.0,STARLINK-4782,PAYLOAD,2022-10-09 06:00:00,15.73189551,0.0001195,53.218,182.2634,88.6177,71.499,0.00048353,0.00067758,0.0,0 STARLINK-4782,1 53933U 22119AZ  22282.25001157  .00067758  00000-0  48353-3 0  9994,2 53933  53.2180 182.2634 0001195  88.6177  71.4990 15.73189551  2684,6727.925,91.534,350.594,348.986,0.0
53933.0,STARLINK-4782,PAYLOAD,2022-10-09 14:00:01,15.73187208,0.000117,53.2182,180.6119,102.5588,146.4772,0.0015623,0.00224474,0.0,0 STARLINK-4782,1 53933U 22119AZ  22282.58334491  .00224474  00000-0  15623-2 0  9993,2 53933  53.2182 180.6119 0001170 102.5588 146.4772 15.73187208  1307,6727.932,91.534,350.584,349.009,0.0
53933.0,STARLINK-4782,PAYLOAD,2022-10-09 22:00:00,15.73367094,0.0001256,53.2184,178.9636,97.0267,241.012,-0.00091577,-0.00128115,0.0,0 STARLINK-4782,1 53933U 22119AZ  22282.91667824 -.00128115  00000-0 -91577-3 0  9999,2 53933  53.2184 178.9636 0001256  97.0267 241.0120 15.73367094  1302,6727.419,91.523,350.129,348.439,0.0
53933.0,STARLINK-4782,PAYLOAD,2022-10-10 06:00:00,15.73351177,0.0001416999999999,53.2172,177.3099,86.6155,340.4887,-0.0020519,-0.00281004,0.0,0 STARLINK-4782,1 53933U 22119AZ  22283.25001157 -.00281004  00000-0 -20519-2 0  9992,2 53933  53.2172 177.3099 0001417  86.6155 340.4887 15.73351177  2843,6727.464,91.524,350.282,348.376,0.0
53933.0,STARLINK-4782,PAYLOAD,2022-10-10 14:00:01,15.73210289,0.0001142,53.2183,175.6618,109.5475,46.7011,-3.2592e-05,-5.193e-05,0.0,0 STARLINK-4782,1 53933U 22119AZ  22283.58334491 -.00005193  00000-0 -32592-4 0  9997,2 53933  53.2183 175.6618 0001142 109.5475  46.7011 15.73210289  2896,6727.866,91.533,350.499,348.963,0.0
53933.0,STARLINK-4782,PAYLOAD,2022-10-10 20:00:01,15.73492903,0.0001259,53.217,174.4203,103.774,29.1282,-0.0061342,-0.00794417,0.0,0 STARLINK-4782,1 53933U 22119AZ  22283.83334491 -.00794417  00000-0 -61342-2 0  9992,2 53933  53.2170 174.4203 0001259 103.7740  29.1282 15.73492903  2934,6727.06,91.516,349.772,348.07800000000015,0.0
53933.0,STARLINK-4782,PAYLOAD,2022-10-10 22:00:01,15.73455232,0.000122,53.2173,174.0072,108.7714,136.4544,-0.0075953999999999,-0.0097767999999999,0.0,0 STARLINK-4782,1 53933U 22119AZ  22283.91668981 -.00977680  00000-0 -75954-2 0  9994,2 53933  53.2173 174.0072 0001220 108.7714 136.4544 15.73455232  1308,6727.168000000002,91.518,349.853,348.212,0.0
53933.0,STARLINK-4782,PAYLOAD,2022-10-11 06:00:00,15.73105913,9.73e-05,53.2169,172.361,90.0571,243.884,-0.00041889,-0.00058761,0.0,0 STARLINK-4782,1 53933U 22119AZ  22284.25001157 -.00058761  00000-0 -41889-3 0  9999,2 53933  53.2169 172.3610 0000973  90.0571 243.8840 15.73105913  2996,6728.163000000001,91.539,350.68300000000005,349.374,0.0
53933.0,STARLINK-4782,PAYLOAD,2022-10-11 14:00:01,15.72924847,0.0001267,53.2174,170.7012,93.3044,329.4221,0.0031456999999999,0.00460525,0.0,0 STARLINK-4782,1 53933U 22119AZ  22284.58334491  .00460525  00000-0  31457-2 0  9997,2 53933  53.2174 170.7012 0001267  93.3044 329.4221 15.72924847  1300,6728.68,91.549,351.397,349.69199999999995,0.0
53933.0,STARLINK-4782,PAYLOAD,2022-10-11 20:00:01,15.73140757,0.0001271,53.2175,169.4795,102.9896,296.4033,0.00035088,0.00048785,0.0,0 STARLINK-4782,1 53933U 22119AZ  22284.83335648  .00048785  00000-0  35088-3 0  9995,2 53933  53.2175 169.4795 0001271 102.9896 296.4033 15.73140757  3094,6728.064,91.537,350.784,349.074,0.0
53933.0,STARLINK-4782,PAYLOAD,2022-10-11 22:00:00,15.73185387,0.0001258,53.2173,169.0677,100.8135,50.7179,-0.00023199,-0.0003303,0.0,0 STARLINK-4782,1 53933U 22119AZ  22284.91667824 -.00033030  00000-0 -23199-3 0  9997,2 53933  53.2173 169.0677 0001258 100.8135  50.7179 15.73185387  1307,6727.937,91.534,350.648,348.955,0.0
53933.0,STARLINK-4782,PAYLOAD,2022-10-12 14:00:01,15.73229873,0.0001069,53.2171,165.7579,106.5166,222.8531,-0.00024461,-0.0003485,0.0,0 STARLINK-4782,1 53933U 22119AZ  22285.58334491 -.00034850  00000-0 -24461-3 0  9996,2 53933  53.2171 165.7579 0001069 106.5166 222.8531 15.73229873  1309,6727.81,91.531,350.394,348.956,0.0
53933.0,STARLINK-4782,PAYLOAD,2022-10-12 20:00:01,15.73203262,0.000104,53.2174,164.5179,97.376,208.7132,8.9785e-06,6.41e-06,0.0,0 STARLINK-4782,1 53933U 22119AZ  22285.83334491  .00000641  00000-0  89785-5 0  9995,2 53933  53.2174 164.5179 0001040  97.3760 208.7132 15.73203262  3240,6727.886,91.533,350.451,349.051,0.0
53933.0,STARLINK-4782,PAYLOAD,2022-10-12 22:00:00,15.73204889,0.0001027,53.2175,164.1048,91.8669,326.4553,-9.1355e-06,-1.901e-05,0.0,0 STARLINK-4782,1 53933U 22119AZ  22285.91667824 -.00001901  00000-0 -91355-5 0  9991,2 53933  53.2175 164.1048 0001027  91.8669 326.4553 15.73204889  1300,6727.880999999999,91.533,350.43699999999984,349.055,0.0
53933.0,STARLINK-4782,PAYLOAD,2022-10-13 14:00:01,15.73076232,0.0001319,53.2167,160.8065,102.4989,133.7721,0.0012414,0.0017637,0.0,0 STARLINK-4782,1 53933U 22119AZ  22286.58334491  .00176370  00000-0  12414-2 0  9993,2 53933  53.2167 160.8065 0001319 102.4989 133.7721 15.73076232  1306,6728.248000000001,91.54,351.001,349.226,0.0
53933.0,STARLINK-4782,PAYLOAD,2022-10-13 20:00:01,15.72970434,0.0001133,53.2174,159.5697,97.9051,115.1943,0.0023276,0.00336154,0.0,0 STARLINK-4782,1 53933U 22119AZ  22286.83335648  .00336154  00000-0  23276-2 0  9992,2 53933  53.2174 159.5697 0001133  97.9051 115.1943 15.72970434  3401,6728.55,91.547,351.177,349.652,0.0
53933.0,STARLINK-4782,PAYLOAD,2022-10-13 22:00:00,15.73058235,0.0001152,53.2173,159.157,92.4327,232.7656,0.0016378,0.00234336,0.0,0 STARLINK-4782,1 53933U 22119AZ  22286.91667824  .00234336  00000-0  16378-2 0  9999,2 53933  53.2173 159.1570 0001152  92.4327 232.7656 15.73058235  1304,6728.299,91.541,350.939,349.389,0.0
53933.0,STARLINK-4782,PAYLOAD,2022-10-14 06:00:00,15.73365057,8.909999999999997e-05,53.2168,157.5129,99.4622,314.6578,-0.0031304,-0.00421583,0.0,0 STARLINK-4782,1 53933U 22119AZ  22287.25001157 -.00421583  00000-0 -31304-2 0  9998,2 53933  53.2168 157.5129 0000891  99.4622 314.6578 15.73365057  3470,6727.425,91.524,349.889,348.69,0.0
53933.0,STARLINK-4782,PAYLOAD,2022-10-14 14:00:01,15.73108848,0.0001205999999999,53.2173,155.856,108.1201,34.92,0.0010962,0.00155494,0.0,0 STARLINK-4782,1 53933U 22119AZ  22287.58334491  .00155494  00000-0  10962-2 0  9994,2 53933  53.2173 155.8560 0001206 108.1201  34.9200 15.73108848  3521,6728.155,91.538,350.831,349.209,0.0
53933.0,STARLINK-4782,PAYLOAD,2022-10-14 20:00:01,15.73203261,0.0001118,53.2174,154.6179,106.0143,13.6817,1.4431e-05,1.406e-05,0.0,0 STARLINK-4782,1 53933U 22119AZ  22287.83334491  .00001406  00000-0  14431-4 0  9992,2 53933  53.2174 154.6179 0001118 106.0143  13.6817 15.73203261  1306,6727.886,91.533,350.50300000000016,348.999,0.0
53933.0,STARLINK-4782,PAYLOAD,2022-10-15 14:00:01,15.73189797,0.0001066999999999,53.2162,150.9218,117.6457,292.2809,0.00028684,0.00039809,0.0,0 STARLINK-4782,1 53933U 22119AZ  22288.58334491  .00039809  00000-0  28684-3 0  9997,2 53933  53.2162 150.9218 0001067 117.6457 292.2809 15.73189797  3681,6727.924,91.534,350.50699999999995,349.071,0.0
53933.0,STARLINK-4782,PAYLOAD,2022-10-15 20:00:01,15.73205027,0.0001053,53.2174,149.6692,130.4201,256.1436,-8.89e-06,-1.867e-05,0.0,0 STARLINK-4782,1 53933U 22119AZ  22288.83335648 -.00001867  00000-0 -88900-5 0  9994,2 53933  53.2174 149.6692 0001053 130.4201 256.1436 15.73205027  3714,6727.880999999999,91.533,350.454,349.037,0.0
53933.0,STARLINK-4782,PAYLOAD,2022-10-15 22:00:01,15.73205103,0.0001066999999999,53.2173,149.2573,129.6017,9.1952,-9.2256e-06,-1.914e-05,0.0,0 STARLINK-4782,1 53933U 22119AZ  22288.91668981 -.00001914  00000-0 -92256-5 0  9994,2 53933  53.2173 149.2573 0001067 129.6017   9.1952 15.73205103  1304,6727.880999999999,91.533,350.463,349.028,0.0
53933.0,STARLINK-4782,PAYLOAD,2022-10-16 04:00:00,15.73227705,8.37e-05,53.2163,148.0373,98.4403,17.0647,-0.00066955,-0.00093653,0.0,0 STARLINK-4782,1 53933U 22119AZ  22289.16667824 -.00093653  00000-0 -66955-3 0  9993,2 53933  53.2163 148.0373 0000837  98.4403  17.0647 15.73227705  3778,6727.816,91.532,350.244,349.11800000000005,0.0
53933.0,STARLINK-4782,PAYLOAD,2022-10-16 14:00:01,15.73092072,0.0001288,53.2164,145.9738,107.9686,208.6856,0.00051574,0.00072048,0.0,0 STARLINK-4782,1 53933U 22119AZ  22289.58334491  .00072048  00000-0  51574-3 0  9994,2 53933  53.2164 145.9738 0001288 107.9686 208.6856 15.73092072  1304,6728.203,91.539,350.934,349.201,0.0
53933.0,STARLINK-4782,PAYLOAD,2022-10-16 20:00:01,15.73131811,0.0001225,53.2162,144.7388,99.4823,193.7869,0.00031537,0.00043742,0.0,0 STARLINK-4782,1 53933U 22119AZ  22289.83334491  .00043742  00000-0  31537-3 0  9998,2 53933  53.2162 144.7388 0001225  99.4823 193.7869 15.73131811  3876,6728.09,91.537,350.779,349.13,0.0
53933.0,STARLINK-4782,PAYLOAD,2022-10-16 22:00:00,15.7313363,0.0001198,53.2164,144.3243,97.145,308.339,0.00044112,0.00061567,0.0,0 STARLINK-4782,1 53933U 22119AZ  22289.91667824  .00061567  00000-0  44112-3 0  9994,2 53933  53.2164 144.3243 0001198  97.1450 308.3390 15.73133630  1304,6728.084,91.537,350.755,349.14300000000014,0.0
53933.0,STARLINK-4782,PAYLOAD,2022-10-17 12:00:00,15.73232024,0.0001198,53.2159,141.4381,109.9427,1.1372,0.00041881,0.00058649,0.0,0 STARLINK-4782,1 53933U 22119AZ  22290.50001157  .00058649  00000-0  41881-3 0  9999,2 53933  53.2159 141.4381 0001198 109.9427   1.1372 15.73232024  3986,6727.804,91.531,350.475,348.86300000000006,0.0
53933.0,STARLINK-4782,PAYLOAD,2022-10-17 14:00:01,15.73270403,0.0001257,53.216,141.0223,112.0165,111.2997,-2.8295e-05,-4.601e-05,0.0,0 STARLINK-4782,1 53933U 22119AZ  22290.58334491 -.00004601  00000-0 -28295-4 0  9993,2 53933  53.2160 141.0223 0001257 112.0165 111.2997 15.73270403  1302,6727.694,91.529,350.405,348.714,0.0
